{
  "norad_id": 65576,
  "name": "PRAETORIAN SDA_613",
  "history": [
    {
      "epoch": "2026-03-28T18:03:28.879776Z",
      "apogee_km": 958.4881593680775,
      "perigee_km": 948.4381485090616,
      "latitude_deg": -2.9008821327090124e-05,
      "longitude_deg": -11.760289304553101,
      "height_km": 953.8363635824128,
      "semi_major_axis_km": 7331.60015393857,
      "eccentricity": 0.00068539,
      "inclination_deg": 81.2959,
      "raan_deg": 85.2784,
      "arg_perigee_deg": 60.4456,
      "mean_anomaly_deg": 299.7382,
      "mean_motion_rev_day": 13.82944032
    },
    {
      "epoch": "2026-03-29T02:44:23.575200Z",
      "apogee_km": 958.4807030279035,
      "perigee_km": 948.4452090081068,
      "latitude_deg": -4.4487668397470966e-05,
      "longitude_deg": -142.67924061454977,
      "height_km": 953.7751108398654,
      "semi_major_axis_km": 7331.599956018005,
      "eccentricity": 0.0006844,
      "inclination_deg": 81.2959,
      "raan_deg": 84.9439,
      "arg_perigee_deg": 59.5918,
      "mean_anomaly_deg": 300.5913,
      "mean_motion_rev_day": 13.82944088
    },
    {
      "epoch": "2026-03-30T01:18:45.775872Z",
      "apogee_km": 958.4631613004512,
      "perigee_km": 948.4613935661773,
      "latitude_deg": -5.548397389699604e-05,
      "longitude_deg": -123.06857790780381,
      "height_km": 953.6207177853796,
      "semi_major_axis_km": 7331.5992774333145,
      "eccentricity": 0.0006821,
      "inclination_deg": 81.296,
      "raan_deg": 84.0741,
      "arg_perigee_deg": 57.4069,
      "mean_anomaly_deg": 302.7744,
      "mean_motion_rev_day": 13.8294428
    },
    {
      "epoch": "2026-03-30T01:18:45.776736Z",
      "apogee_km": 958.463454564424,
      "perigee_km": 948.4611003022064,
      "latitude_deg": 4.0124788688915274e-05,
      "longitude_deg": -123.06856695692336,
      "height_km": 953.6205468736115,
      "semi_major_axis_km": 7331.5992774333145,
      "eccentricity": 0.00068214,
      "inclination_deg": 81.296,
      "raan_deg": 84.0741,
      "arg_perigee_deg": 57.407,
      "mean_anomaly_deg": 302.7744,
      "mean_motion_rev_day": 13.8294428
    },
    {
      "epoch": "2026-03-30T11:43:51.404160Z",
      "apogee_km": 958.4467700664145,
      "perigee_km": 948.4772617246008,
      "latitude_deg": -6.747236776578779e-05,
      "longitude_deg": 79.82870806224778,
      "height_km": 953.5534361388519,
      "semi_major_axis_km": 7331.599015895507,
      "eccentricity": 0.0006799,
      "inclination_deg": 81.2961,
      "raan_deg": 83.6727,
      "arg_perigee_deg": 56.3653,
      "mean_anomaly_deg": 303.815,
      "mean_motion_rev_day": 13.82944354
    },
    {
      "epoch": "2026-03-31T17:14:57.339744Z",
      "apogee_km": 958.4277160477886,
      "perigee_km": 948.4948666826458,
      "latitude_deg": 9.947105649813395e-07,
      "longitude_deg": -5.295785649701982,
      "height_km": 953.3604847979113,
      "semi_major_axis_km": 7331.598291365217,
      "eccentricity": 0.0006774,
      "inclination_deg": 81.2963,
      "raan_deg": 82.5352,
      "arg_perigee_deg": 53.5062,
      "mean_anomaly_deg": 306.6717,
      "mean_motion_rev_day": 13.82944559
    },
    {
      "epoch": "2026-04-01T15:49:19.517952Z",
      "apogee_km": 958.4141973328724,
      "perigee_km": 948.5077421561527,
      "latitude_deg": -2.1335846412333168e-05,
      "longitude_deg": 14.315069881672983,
      "height_km": 953.2181252474375,
      "semi_major_axis_km": 7331.597969744512,
      "eccentricity": 0.0006756,
      "inclination_deg": 81.2964,
      "raan_deg": 81.6655,
      "arg_perigee_deg": 51.3126,
      "mean_anomaly_deg": 308.8633,
      "mean_motion_rev_day": 13.8294465
    },
    {
      "epoch": "2026-04-02T16:07:52.611744Z",
      "apogee_km": 958.3937441975249,
      "perigee_km": 948.5268805345422,
      "latitude_deg": 9.830876344152515e-07,
      "longitude_deg": 7.7421402995725686,
      "height_km": 953.0712674877257,
      "semi_major_axis_km": 7331.597312366033,
      "eccentricity": 0.0006729,
      "inclination_deg": 81.2966,
      "raan_deg": 80.7288,
      "arg_perigee_deg": 48.9057,
      "mean_anomaly_deg": 311.2679,
      "mean_motion_rev_day": 13.82944836
    },
    {
      "epoch": "2026-04-02T23:04:36.349248Z",
      "apogee_km": 958.3860438328202,
      "perigee_km": 948.5336973261965,
      "latitude_deg": 1.4741126714771173e-06,
      "longitude_deg": -96.99293986002536,
      "height_km": 953.0312259756986,
      "semi_major_axis_km": 7331.596870579508,
      "eccentricity": 0.00067191,
      "inclination_deg": 81.2966,
      "raan_deg": 80.4612,
      "arg_perigee_deg": 48.2153,
      "mean_anomaly_deg": 311.9576,
      "mean_motion_rev_day": 13.82944961
    },
    {
      "epoch": "2026-04-03T16:26:25.701216Z",
      "apogee_km": 958.370245254132,
      "perigee_km": 948.5488385266153,
      "latitude_deg": 8.843681275943064e-06,
      "longitude_deg": 1.169225852892498,
      "height_km": 952.935516287975,
      "semi_major_axis_km": 7331.596541890373,
      "eccentricity": 0.0006698,
      "inclination_deg": 81.2967,
      "raan_deg": 79.7921,
      "arg_perigee_deg": 46.5344,
      "mean_anomaly_deg": 313.6368,
      "mean_motion_rev_day": 13.82945054
    },
    {
      "epoch": "2026-04-04T11:32:25.980000Z",
      "apogee_km": 958.3503728128326,
      "perigee_km": 948.5681172069662,
      "latitude_deg": 3.1076722360787673e-06,
      "longitude_deg": 73.14775059110195,
      "height_km": 952.8334739440542,
      "semi_major_axis_km": 7331.596245009899,
      "eccentricity": 0.00066713,
      "inclination_deg": 81.2969,
      "raan_deg": 79.0562,
      "arg_perigee_deg": 44.6389,
      "mean_anomaly_deg": 315.5303,
      "mean_motion_rev_day": 13.82945138
    }
  ]
}